{"type": "FeatureCollection", "features": [ {"type": "Feature", "properties": {"norad_id": 37867, "name": "COSMOS 2476 (744)", "group": "gnss", "lat": 15.574267290435179, "lon": 86.11226040075526, "alt_km": 19177.7173255391, "timestamp": "2025-12-26T18:39:32.522518+00:00", "meta": {"OBJECT_NAME": "COSMOS 2476 (744)", "OBJECT_ID": "2011-064A", "EPOCH": "2025-12-26T10:11:25.908288", "MEAN_MOTION": 2.13103879, "ECCENTRICITY": 0.00245779, "INCLINATION": 65.169, "RA_OF_ASC_NODE": 78.7087, "ARG_OF_PERICENTER": 235.1101, "MEAN_ANOMALY": 231.2674, "EPHEMERIS_TYPE": 0, "CLASSIFICATION_TYPE": "U", "NORAD_CAT_ID": 37867, "ELEMENT_SET_NO": 999, "REV_AT_EPOCH": 11008, "BSTAR": 0, "MEAN_MOTION_DOT": -7e-08, "MEAN_MOTION_DDOT": 0}, "tle": {"line1": "1 37867U 11064A   25360.42460542 -.00000007  00000+0  00000+0 0  9992", "line2": "2 37867  65.1690  78.7087 0024577 235.1101 231.2674  2.13103879110084"}}, "geometry": {"type": "Point", "coordinates": [86.11226040075526, 15.574267290435179]}}, {"type": "Feature", "properties": {"norad_id": 37868, "name": "COSMOS 2477 (745)", "group": "gnss", "lat": -16.131843259594955, "lon": -93.53158239891867, "alt_km": 19088.728970527343, "timestamp": "2025-12-26T18:39:32.522531+00:00", "meta": {"OBJECT_NAME": "COSMOS 2477 (745)", "OBJECT_ID": "2011-064B", "EPOCH": "2025-12-24T15:22:57.950400", "MEAN_MOTION": 2.13103036, "ECCENTRICITY": 0.00215718, "INCLINATION": 65.1748, "RA_OF_ASC_NODE": 78.8466, "ARG_OF_PERICENTER": 235.4688, "MEAN_ANOMALY": 123.4303, "EPHEMERIS_TYPE": 0, "CLASSIFICATION_TYPE": "U", "NORAD_CAT_ID": 37868, "ELEMENT_SET_NO": 999, "REV_AT_EPOCH": 11003, "BSTAR": 0, "MEAN_MOTION_DOT": 1e-08, "MEAN_MOTION_DDOT": 0}, "tle": {"line1": "1 37868U 11064B   25358.64094850  .00000001  00000+0  00000+0 0  9992", "line2": "2 37868  65.1748  78.8466 0021571 235.4688 123.4303  2.13103036110036"}}, "geometry": {"type": "Point", "coordinates": [-93.53158239891867, -16.131843259594955]}}, {"type": "Feature", "properties": {"norad_id": 37869, "name": "COSMOS 2475 (743)", "group": "gnss", "lat": 23.855586903452593, "lon": -112.9848209205432, "alt_km": 19133.935403445346, "timestamp": "2025-12-26T18:39:32.522543+00:00", "meta": {"OBJECT_NAME": "COSMOS 2475 (743)", "OBJECT_ID": "2011-064C", "EPOCH": "2025-12-26T02:48:59.782176", "MEAN_MOTION": 2.13101658, "ECCENTRICITY": 0.00268162, "INCLINATION": 65.1822, "RA_OF_ASC_NODE": 78.8169, "ARG_OF_PERICENTER": 249.2724, "MEAN_ANOMALY": 118.1607, "EPHEMERIS_TYPE": 0, "CLASSIFICATION_TYPE": "U", "NORAD_CAT_ID": 37869, "ELEMENT_SET_NO": 999, "REV_AT_EPOCH": 11008, "BSTAR": 0, "MEAN_MOTION_DOT": -5e-08, "MEAN_MOTION_DDOT": 0}, "tle": {"line1": "1 37869U 11064C   25360.11735859 -.00000005  00000+0  00000+0 0  9994", "line2": "2 37869  65.1822  78.8169 0026816 249.2724 118.1607  2.13101658110082"}}, "geometry": {"type": "Point", "coordinates": [-112.9848209205432, 23.855586903452593]}}, {"type": "Feature", "properties": {"norad_id": 37948, "name": "BEIDOU-2 IGSO-5 (C10)", "group": "gnss", "lat": -10.99355734455257, "lon": 103.75060584750902, "alt_km": 35371.233949503796, "timestamp": "2025-12-26T18:39:32.522561+00:00", "meta": {"OBJECT_NAME": "BEIDOU-2 IGSO-5 (C10)", "OBJECT_ID": "2011-073A", "EPOCH": "2025-12-26T16:19:22.253088", "MEAN_MOTION": 1.00287798, "ECCENTRICITY": 0.01096407, "INCLINATION": 47.9941, "RA_OF_ASC_NODE": 273.6876, "ARG_OF_PERICENTER": 222.0743, "MEAN_ANOMALY": 298.2461, "EPHEMERIS_TYPE": 0, "CLASSIFICATION_TYPE": "U", "NORAD_CAT_ID": 37948, "ELEMENT_SET_NO": 999, "REV_AT_EPOCH": 5140, "BSTAR": 0, "MEAN_MOTION_DOT": -1.46e-06, "MEAN_MOTION_DDOT": 0}, "tle": {"line1": "1 37948U 11073A   25360.68011867 -.00000146  00000+0  00000+0 0  9996", "line2": "2 37948  47.9941 273.6876 0109640 222.0743 298.2461  1.00287798 51400"}}, "geometry": {"type": "Point", "coordinates": [103.75060584750902, -10.99355734455257]}}, {"type": "Feature", "properties": {"norad_id": 37951, "name": "LUCH 5A (SDCM/PRN 140)", "group": "gnss", "lat": 7.998956289457913, "lon": -177.49229924895744, "alt_km": 35784.59853732319, "timestamp": "2025-12-26T18:39:32.522574+00:00", "meta": {"OBJECT_NAME": "LUCH 5A (SDCM/PRN 140)", "OBJECT_ID": "2011-074B", "EPOCH": "2025-12-26T11:04:38.607744", "MEAN_MOTION": 1.00268872, "ECCENTRICITY": 0.00053148, "INCLINATION": 8.3126, "RA_OF_ASC_NODE": 76.3818, "ARG_OF_PERICENTER": 192.7043, "MEAN_ANOMALY": 159.289, "EPHEMERIS_TYPE": 0, "CLASSIFICATION_TYPE": "U", "NORAD_CAT_ID": 37951, "ELEMENT_SET_NO": 999, "REV_AT_EPOCH": 5131, "BSTAR": 0, "MEAN_MOTION_DOT": -3.1e-07, "MEAN_MOTION_DDOT": 0}, "tle": {"line1": "1 37951U 11074B   25360.46155796 -.00000031  00000+0  00000+0 0  9990", "line2": "2 37951   8.3126  76.3818 0005314 192.7043 159.2890  1.00268872 51317"}}, "geometry": {"type": "Point", "coordinates": [-177.49229924895744, 7.998956289457913]}}, {"type": "Feature", "properties": {"norad_id": 38091, "name": "BEIDOU-2 G5 (C05)", "group": "gnss", "lat": 0.21110764099571327, "lon": 74.22721959821862, "alt_km": 35823.29719966559, "timestamp": "2025-12-26T18:39:32.522586+00:00", "meta": {"OBJECT_NAME": "BEIDOU-2 G5 (C05)", "OBJECT_ID": "2012-008A", "EPOCH": "2025-12-26T16:03:43.871328", "MEAN_MOTION": 1.00270229, "ECCENTRICITY": 0.00131459, "INCLINATION": 3.1416, "RA_OF_ASC_NODE": 70.6571, "ARG_OF_PERICENTER": 232.2099, "MEAN_ANOMALY": 92.2003, "EPHEMERIS_TYPE": 0, "CLASSIFICATION_TYPE": "U", "NORAD_CAT_ID": 38091, "ELEMENT_SET_NO": 999, "REV_AT_EPOCH": 5063, "BSTAR": 0, "MEAN_MOTION_DOT": 7.8e-07, "MEAN_MOTION_DDOT": 0}, "tle": {"line1": "1 38091U 12008A   25360.66925777  .00000078  00000+0  00000+0 0  9990", "line2": "2 38091   3.1416  70.6571 0013145 232.2099  92.2003  1.00270229 50638"}}, "geometry": {"type": "Point", "coordinates": [74.22721959821862, 0.21110764099571327]}}, {"type": "Feature", "properties": {"norad_id": 38250, "name": "BEIDOU-2 M3 (C11)", "group": "gnss", "lat": -26.03510062008771, "lon": -68.6312125865055, "alt_km": 21490.478572719658, "timestamp": "2025-12-26T18:39:32.522598+00:00", "meta": {"OBJECT_NAME": "BEIDOU-2 M3 (C11)", "OBJECT_ID": "2012-018A", "EPOCH": "2025-12-26T06:54:56.796768", "MEAN_MOTION": 1.86230094, "ECCENTRICITY": 0.002406, "INCLINATION": 55.9085, "RA_OF_ASC_NODE": 310.7027, "ARG_OF_PERICENTER": 275.5278, "MEAN_ANOMALY": 84.2034, "EPHEMERIS_TYPE": 0, "CLASSIFICATION_TYPE": "U", "NORAD_CAT_ID": 38250, "ELEMENT_SET_NO": 999, "REV_AT_EPOCH": 9272, "BSTAR": 0, "MEAN_MOTION_DOT": -5.6e-07, "MEAN_MOTION_DDOT": 0}, "tle": {"line1": "1 38250U 12018A   25360.28815737 -.00000056  00000+0  00000+0 0  9997", "line2": "2 38250  55.9085 310.7027 0024060 275.5278  84.2034  1.86230094 92724"}}, "geometry": {"type": "Point", "coordinates": [-68.6312125865055, -26.03510062008771]}}, {"type": "Feature", "properties": {"norad_id": 38251, "name": "BEIDOU-2 M4 (C12)", "group": "gnss", "lat": 11.210618391431536, "lon": -42.3666863702189, "alt_km": 21529.682507845868, "timestamp": "2025-12-26T18:39:32.522609+00:00", "meta": {"OBJECT_NAME": "BEIDOU-2 M4 (C12)", "OBJECT_ID": "2012-018B", "EPOCH": "2025-12-26T05:17:08.086272", "MEAN_MOTION": 1.86229697, "ECCENTRICITY": 0.00151679, "INCLINATION": 55.8099, "RA_OF_ASC_NODE": 309.9329, "ARG_OF_PERICENTER": 279.7877, "MEAN_ANOMALY": 80.0472, "EPHEMERIS_TYPE": 0, "CLASSIFICATION_TYPE": "U", "NORAD_CAT_ID": 38251, "ELEMENT_SET_NO": 999, "REV_AT_EPOCH": 9272, "BSTAR": 0, "MEAN_MOTION_DOT": -5.5e-07, "MEAN_MOTION_DDOT": 0}, "tle": {"line1": "1 38251U 12018B   25360.22023248 -.00000055  00000+0  00000+0 0  9999", "line2": "2 38251  55.8099 309.9329 0015167 279.7877  80.0472  1.86229697 92720"}}, "geometry": {"type": "Point", "coordinates": [-42.3666863702189, 11.210618391431536]}}, {"type": "Feature", "properties": {"norad_id": 38652, "name": "SES-5 (EGNOS/PRN 136)", "group": "gnss", "lat": 0.05617051799373136, "lon": 20.389943300457162, "alt_km": 35788.39666988398, "timestamp": "2025-12-26T18:39:32.522624+00:00", "meta": {"OBJECT_NAME": "SES-5 (EGNOS/PRN 136)", "OBJECT_ID": "2012-036A", "EPOCH": "2025-12-26T08:51:38.739168", "MEAN_MOTION": 1.00269218, "ECCENTRICITY": 0.00019556, "INCLINATION": 0.0564, "RA_OF_ASC_NODE": 306.7412, "ARG_OF_PERICENTER": 332.3205, "MEAN_ANOMALY": 313.9407, "EPHEMERIS_TYPE": 0, "CLASSIFICATION_TYPE": "U", "NORAD_CAT_ID": 38652, "ELEMENT_SET_NO": 999, "REV_AT_EPOCH": 4272, "BSTAR": 0, "MEAN_MOTION_DOT": 5.5e-07, "MEAN_MOTION_DDOT": 0}, "tle": {"line1": "1 38652U 12036A   25360.36919837  .00000055  00000+0  00000+0 0  9996", "line2": "2 38652   0.0564 306.7412 0001955 332.3205 313.9407  1.00269218 42723"}}, "geometry": {"type": "Point", "coordinates": [20.389943300457162, 0.05617051799373136]}}, {"type": "Feature", "properties": {"norad_id": 38775, "name": "BEIDOU-2 M6 (C14)", "group": "gnss", "lat": -22.52710562639457, "lon": -95.38946478569672, "alt_km": 21554.13951082378, "timestamp": "2025-12-26T18:39:32.522651+00:00", "meta": {"OBJECT_NAME": "BEIDOU-2 M6 (C14)", "OBJECT_ID": "2012-050B", "EPOCH": "2025-12-24T07:41:05.368128", "MEAN_MOTION": 1.86230801, "ECCENTRICITY": 0.00114872, "INCLINATION": 56.388, "RA_OF_ASC_NODE": 68.6832, "ARG_OF_PERICENTER": 343.1884, "MEAN_ANOMALY": 16.8281, "EPHEMERIS_TYPE": 0, "CLASSIFICATION_TYPE": "U", "NORAD_CAT_ID": 38775, "ELEMENT_SET_NO": 999, "REV_AT_EPOCH": 9005, "BSTAR": 0, "MEAN_MOTION_DOT": -2.4e-07, "MEAN_MOTION_DDOT": 0}, "tle": {"line1": "1 38775U 12050B   25358.32020102 -.00000024  00000+0  00000+0 0  9996", "line2": "2 38775  56.3880  68.6832 0011487 343.1884  16.8281  1.86230801 90056"}}, "geometry": {"type": "Point", "coordinates": [-95.38946478569672, -22.52710562639457]}}]}